start=new Date('2022-04-07T00:00:00.000Z').valueOf();
sats=[{"GP_ID":"200622297","REV_AT_EPOCH":"10022","MEAN_MOTION":"15.06399417","COUNTRY_CODE":"US","DECAY_DATE":null,"SEMIMAJOR_AXIS":"6925.350","MEAN_MOTION_DOT":"0.00023855","MEAN_ELEMENT_THEORY":"SGP4","SITE":"AFETR","EPHEMERIS_TYPE":"0","RCS_SIZE":"LARGE","TLE_LINE2":"2 45769  53.0524 189.2072 0001526  49.6796 310.4326 15.06399417100225","ELEMENT_SET_NO":"999","LAUNCH_DATE":"2020-06-13","CENTER_NAME":"EARTH","REF_FRAME":"TEME","NORAD_CAT_ID":"45769","BSTAR":"0.00161500000000","TLE_LINE1":"1 45769U 20038AR  22096.78039043  .00023855  00000-0  16150-2 0  9995","APOAPSIS":"548.272","PERIOD":"95.592","TIME_SYSTEM":"UTC","OBJECT_NAME":"STARLINK-1459","ECCENTRICITY":"0.00015260","EPOCH":"2022-04-06T18:43:45.733152","OBJECT_TYPE":"PAYLOAD","MEAN_MOTION_DDOT":"0.0000000000000","ARG_OF_PERICENTER":"49.6796","OBJECT_ID":"2020-038AR","FILE":"3391320","CLASSIFICATION_TYPE":"U","RA_OF_ASC_NODE":"189.2072","MEAN_ANOMALY":"310.4326","PERIAPSIS":"546.159","INCLINATION":"53.0524"},{"SITE":"AFETR","EPHEMERIS_TYPE":"0","MEAN_ELEMENT_THEORY":"SGP4","RCS_SIZE":"LARGE","MEAN_MOTION_DOT":"0.00003798","REF_FRAME":"TEME","NORAD_CAT_ID":"45770","BSTAR":"0.00027376000000","ELEMENT_SET_NO":"999","TLE_LINE2":"2 45770  53.0512 149.7721 0001621  56.7478 303.3666 15.06397711100759","CENTER_NAME":"EARTH","LAUNCH_DATE":"2020-06-13","MEAN_MOTION":"15.06397711","GP_ID":"200623548","REV_AT_EPOCH":"10075","SEMIMAJOR_AXIS":"6925.356","COUNTRY_CODE":"US","DECAY_DATE":null,"ARG_OF_PERICENTER":"56.7478","MEAN_MOTION_DDOT":"0.0000000000000","OBJECT_TYPE":"PAYLOAD","EPOCH":"2022-04-06T15:36:38.220768","MEAN_ANOMALY":"303.3666","PERIAPSIS":"546.098","RA_OF_ASC_NODE":"149.7721","INCLINATION":"53.0512","OBJECT_ID":"2020-038AS","FILE":"3391320","CLASSIFICATION_TYPE":"U","PERIOD":"95.592","APOAPSIS":"548.343","TIME_SYSTEM":"UTC","TLE_LINE1":"1 45770U 20038AS  22096.65044237  .00003798  00000-0  27376-3 0  9991","OBJECT_NAME":"STARLINK-1462","ECCENTRICITY":"0.00016210"},{"OBJECT_NAME":"STARLINK-1463","ECCENTRICITY":"0.00015950","TLE_LINE1":"1 45771U 20038AT  22096.44498776  .00002497  00000-0  18655-3 0  9995","PERIOD":"95.593","APOAPSIS":"548.383","TIME_SYSTEM":"UTC","OBJECT_ID":"2020-038AT","CLASSIFICATION_TYPE":"U","FILE":"3390907","PERIAPSIS":"546.173","MEAN_ANOMALY":"298.6228","RA_OF_ASC_NODE":"150.7150","INCLINATION":"53.0549","OBJECT_TYPE":"PAYLOAD","EPOCH":"2022-04-06T10:40:46.942464","ARG_OF_PERICENTER":"61.4921","MEAN_MOTION_DDOT":"0.0000000000000","COUNTRY_CODE":"US","DECAY_DATE":null,"SEMIMAJOR_AXIS":"6925.413","GP_ID":"200588053","REV_AT_EPOCH":"10072","MEAN_MOTION":"15.06378988","ELEMENT_SET_NO":"999","TLE_LINE2":"2 45771  53.0549 150.7150 0001595  61.4921 298.6228 15.06378988100726","CENTER_NAME":"EARTH","LAUNCH_DATE":"2020-06-13","NORAD_CAT_ID":"45771","REF_FRAME":"TEME","BSTAR":"0.00018655000000","MEAN_MOTION_DOT":"0.00002497","EPHEMERIS_TYPE":"0","SITE":"AFETR","MEAN_ELEMENT_THEORY":"SGP4","RCS_SIZE":"LARGE"},{"SEMIMAJOR_AXIS":"6925.379","DECAY_DATE":null,"COUNTRY_CODE":"US","MEAN_MOTION":"15.06390038","REV_AT_EPOCH":"10076","GP_ID":"200622047","BSTAR":"0.00001381800000","NORAD_CAT_ID":"45772","REF_FRAME":"TEME","LAUNCH_DATE":"2020-06-13","CENTER_NAME":"EARTH","TLE_LINE2":"2 45772  53.0516 149.8537 0001319  59.2692 300.8427 15.06390038100764","ELEMENT_SET_NO":"999","RCS_SIZE":"LARGE","MEAN_ELEMENT_THEORY":"SGP4","EPHEMERIS_TYPE":"0","SITE":"AFETR","MEAN_MOTION_DOT":"-0.00000076","ECCENTRICITY":"0.00013190","OBJECT_NAME":"STARLINK-1470","TIME_SYSTEM":"UTC","APOAPSIS":"548.158","PERIOD":"95.593","TLE_LINE1":"1 45772U 20038AU  22096.63295763 -.00000076  00000-0  13818-4 0  9997","INCLINATION":"53.0516","RA_OF_ASC_NODE":"149.8537","PERIAPSIS":"546.331","MEAN_ANOMALY":"300.8427","FILE":"3391320","CLASSIFICATION_TYPE":"U","OBJECT_ID":"2020-038AU","ARG_OF_PERICENTER":"59.2692","MEAN_MOTION_DDOT":"0.0000000000000","EPOCH":"2022-04-06T15:11:27.539232","OBJECT_TYPE":"PAYLOAD"},{"ECCENTRICITY":"0.00016550","OBJECT_NAME":"STARLINK-1482","TIME_SYSTEM":"UTC","APOAPSIS":"548.384","PERIOD":"95.593","TLE_LINE1":"1 45773U 20038AV  22096.42654203 -.00000969  00000-0 -46180-4 0  9993","INCLINATION":"53.0531","RA_OF_ASC_NODE":"150.7913","PERIAPSIS":"546.092","MEAN_ANOMALY":"308.0762","FILE":"3390907","CLASSIFICATION_TYPE":"U","OBJECT_ID":"2020-038AV","ARG_OF_PERICENTER":"52.0376","MEAN_MOTION_DDOT":"0.0000000000000","EPOCH":"2022-04-06T10:14:13.231392","OBJECT_TYPE":"PAYLOAD","SEMIMAJOR_AXIS":"6925.373","DECAY_DATE":null,"COUNTRY_CODE":"US","MEAN_MOTION":"15.06392000","REV_AT_EPOCH":"10073","GP_ID":"200589554","BSTAR":"-0.00004618000000","REF_FRAME":"TEME","NORAD_CAT_ID":"45773","LAUNCH_DATE":"2020-06-13","CENTER_NAME":"EARTH","TLE_LINE2":"2 45773  53.0531 150.7913 0001655  52.0376 308.0762 15.06392000100734","ELEMENT_SET_NO":"999","RCS_SIZE":"LARGE","MEAN_ELEMENT_THEORY":"SGP4","EPHEMERIS_TYPE":"0","SITE":"AFETR","MEAN_MOTION_DOT":"-0.00000969"},{"GP_ID":"200589806","REV_AT_EPOCH":"10073","MEAN_MOTION":"15.06391544","COUNTRY_CODE":"US","DECAY_DATE":null,"SEMIMAJOR_AXIS":"6925.374","MEAN_MOTION_DOT":"-0.00001755","EPHEMERIS_TYPE":"0","SITE":"AFETR","MEAN_ELEMENT_THEORY":"SGP4","RCS_SIZE":"LARGE","ELEMENT_SET_NO":"999","TLE_LINE2":"2 45774  53.0531 150.6217 0001310  54.2738 305.8372 15.06391544100739","CENTER_NAME":"EARTH","LAUNCH_DATE":"2020-06-13","NORAD_CAT_ID":"45774","REF_FRAME":"TEME","BSTAR":"-0.00009894700000","TLE_LINE1":"1 45774U 20038AW  22096.46340223 -.00001755  00000-0 -98947-4 0  9994","PERIOD":"95.593","APOAPSIS":"548.147","TIME_SYSTEM":"UTC","OBJECT_NAME":"STARLINK-1485","ECCENTRICITY":"0.00013100","OBJECT_TYPE":"PAYLOAD","EPOCH":"2022-04-06T11:07:17.952672","MEAN_MOTION_DDOT":"0.0000000000000","ARG_OF_PERICENTER":"54.2738","OBJECT_ID":"2020-038AW","FILE":"3390907","CLASSIFICATION_TYPE":"U","MEAN_ANOMALY":"305.8372","PERIAPSIS":"546.332","RA_OF_ASC_NODE":"150.6217","INCLINATION":"53.0531"},{"TLE_LINE1":"1 45775U 20038AX  22096.46709995  .00008662  00000-0  59953-3 0  9995","APOAPSIS":"548.215","PERIOD":"95.592","TIME_SYSTEM":"UTC","OBJECT_NAME":"STARLINK-1488","ECCENTRICITY":"0.00014820","EPOCH":"2022-04-06T11:12:37.435680","OBJECT_TYPE":"PAYLOAD","MEAN_MOTION_DDOT":"0.0000000000000","ARG_OF_PERICENTER":"67.9273","OBJECT_ID":"2020-038AX","FILE":"3390907","CLASSIFICATION_TYPE":"U","RA_OF_ASC_NODE":"150.6091","MEAN_ANOMALY":"292.1873","PERIAPSIS":"546.162","INCLINATION":"53.0525","GP_ID":"200588554","REV_AT_EPOCH":"10074","MEAN_MOTION":"15.06408212","COUNTRY_CODE":"US","DECAY_DATE":null,"SEMIMAJOR_AXIS":"6925.323","MEAN_MOTION_DOT":"0.00008662","MEAN_ELEMENT_THEORY":"SGP4","SITE":"AFETR","EPHEMERIS_TYPE":"0","RCS_SIZE":"LARGE","TLE_LINE2":"2 45775  53.0525 150.6091 0001482  67.9273 292.1873 15.06408212100744","ELEMENT_SET_NO":"999","LAUNCH_DATE":"2020-06-13","CENTER_NAME":"EARTH","NORAD_CAT_ID":"45775","REF_FRAME":"TEME","BSTAR":"0.00059953000000"},{"DECAY_DATE":null,"COUNTRY_CODE":"US","SEMIMAJOR_AXIS":"6925.371","REV_AT_EPOCH":"10073","GP_ID":"200588304","MEAN_MOTION":"15.06392669","CENTER_NAME":"EARTH","LAUNCH_DATE":"2020-06-13","ELEMENT_SET_NO":"999","TLE_LINE2":"2 45776  53.0516 150.8570 0001316  55.5853 304.5260 15.06392669100737","BSTAR":"-0.00013677000000","REF_FRAME":"TEME","NORAD_CAT_ID":"45776","MEAN_MOTION_DOT":"-0.00002318","RCS_SIZE":"LARGE","EPHEMERIS_TYPE":"0","SITE":"AFETR","MEAN_ELEMENT_THEORY":"SGP4","ECCENTRICITY":"0.00013160","OBJECT_NAME":"STARLINK-1489","TLE_LINE1":"1 45776U 20038AY  22096.40811488 -.00002318  00000-0 -13677-3 0  9998","TIME_SYSTEM":"UTC","PERIOD":"95.593","APOAPSIS":"548.147","CLASSIFICATION_TYPE":"U","FILE":"3390907","OBJECT_ID":"2020-038AY","INCLINATION":"53.0516","PERIAPSIS":"546.325","MEAN_ANOMALY":"304.5260","RA_OF_ASC_NODE":"150.8570","OBJECT_TYPE":"PAYLOAD","EPOCH":"2022-04-06T09:47:41.125632","MEAN_MOTION_DDOT":"0.0000000000000","ARG_OF_PERICENTER":"55.5853"},{"ECCENTRICITY":"0.00015710","OBJECT_NAME":"STARLINK-1490","TIME_SYSTEM":"UTC","PERIOD":"95.592","APOAPSIS":"548.278","TLE_LINE1":"1 45777U 20038AZ  22096.86885466  .00011516  00000-0  79059-3 0  9990","INCLINATION":"53.0525","MEAN_ANOMALY":"302.6161","PERIAPSIS":"546.103","RA_OF_ASC_NODE":"148.8108","FILE":"3391320","CLASSIFICATION_TYPE":"U","OBJECT_ID":"2020-038AZ","MEAN_MOTION_DDOT":"0.0000000000000","ARG_OF_PERICENTER":"57.4979","OBJECT_TYPE":"PAYLOAD","EPOCH":"2022-04-06T20:51:09.042624","SEMIMAJOR_AXIS":"6925.325","DECAY_DATE":null,"COUNTRY_CODE":"US","MEAN_MOTION":"15.06407530","REV_AT_EPOCH":"10080","GP_ID":"200622298","BSTAR":"0.00079059000000","NORAD_CAT_ID":"45777","REF_FRAME":"TEME","CENTER_NAME":"EARTH","LAUNCH_DATE":"2020-06-13","ELEMENT_SET_NO":"999","TLE_LINE2":"2 45777  53.0525 148.8108 0001571  57.4979 302.6161 15.06407530100806","RCS_SIZE":"LARGE","EPHEMERIS_TYPE":"0","SITE":"AFETR","MEAN_ELEMENT_THEORY":"SGP4","MEAN_MOTION_DOT":"0.00011516"},{"ELEMENT_SET_NO":"999","TLE_LINE2":"2 45778  53.0521 149.7738 0001346  74.2611 285.8526 15.06385712100750","CENTER_NAME":"EARTH","LAUNCH_DATE":"2020-06-13","REF_FRAME":"TEME","NORAD_CAT_ID":"45778","BSTAR":"0.00008282500000","MEAN_MOTION_DOT":"0.00000952","SITE":"AFETR","EPHEMERIS_TYPE":"0","MEAN_ELEMENT_THEORY":"SGP4","RCS_SIZE":"LARGE","COUNTRY_CODE":"US","DECAY_DATE":null,"SEMIMAJOR_AXIS":"6925.392","GP_ID":"200623549","REV_AT_EPOCH":"10075","MEAN_MOTION":"15.06385712","OBJECT_ID":"2020-038BA","FILE":"3391320","CLASSIFICATION_TYPE":"U","MEAN_ANOMALY":"285.8526","PERIAPSIS":"546.325","RA_OF_ASC_NODE":"149.7738","INCLINATION":"53.0521","OBJECT_TYPE":"PAYLOAD","EPOCH":"2022-04-06T15:38:00.203136","ARG_OF_PERICENTER":"74.2611","MEAN_MOTION_DDOT":"0.0000000000000","OBJECT_NAME":"STARLINK-1491","ECCENTRICITY":"0.00013460","TLE_LINE1":"1 45778U 20038BA  22096.65139124  .00000952  00000-0  82825-4 0  9999","PERIOD":"95.593","APOAPSIS":"548.190","TIME_SYSTEM":"UTC"}];
